CCSDS_OMM_VERS = 2.0
CREATION_DATE  = 
ORIGINATOR     = 

OBJECT_NAME    = STARLINK-36625
OBJECT_ID      = 2026-022W
CENTER_NAME    = EARTH
REF_FRAME      = TEME
TIME_SYSTEM    = UTC
MEAN_ELEMENT_THEORY = SGP/SGP4

EPOCH          = 2026-02-07T20:00:03.000384
MEAN_MOTION    = 16.04054078
ECCENTRICITY   = .0001353
INCLINATION    = 97.2814
RA_OF_ASC_NODE = 71.1829
ARG_OF_PERICENTER = 73.2281
MEAN_ANOMALY   = 111.5998

EPHEMERIS_TYPE = 0
CLASSIFICATION_TYPE = U
NORAD_CAT_ID   = 67668
ELEMENT_SET_NO = 999
REV_AT_EPOCH   = 209
BSTAR          = -.22817E-2
MEAN_MOTION_DOT = -.1452676E-1
MEAN_MOTION_DDOT = .68569E-3

CCSDS_OMM_VERS = 2.0
CREATION_DATE  = 
ORIGINATOR     = 

OBJECT_NAME    = STARLINK-36639
OBJECT_ID      = 2026-022X
CENTER_NAME    = EARTH
REF_FRAME      = TEME
TIME_SYSTEM    = UTC
MEAN_ELEMENT_THEORY = SGP/SGP4

EPOCH          = 2026-02-07T20:00:03.000384
MEAN_MOTION    = 16.04252442
ECCENTRICITY   = .0001419
INCLINATION    = 97.2816
RA_OF_ASC_NODE = 71.1838
ARG_OF_PERICENTER = 74.1056
MEAN_ANOMALY   = 112.5203

EPHEMERIS_TYPE = 0
CLASSIFICATION_TYPE = U
NORAD_CAT_ID   = 67669
ELEMENT_SET_NO = 999
REV_AT_EPOCH   = 209
BSTAR          = -.2257E-2
MEAN_MOTION_DOT = -.1454061E-1
MEAN_MOTION_DDOT = .68855E-3

CCSDS_OMM_VERS = 2.0
CREATION_DATE  = 
ORIGINATOR     = 

OBJECT_NAME    = STARLINK-36596
OBJECT_ID      = 2026-022Y
CENTER_NAME    = EARTH
REF_FRAME      = TEME
TIME_SYSTEM    = UTC
MEAN_ELEMENT_THEORY = SGP/SGP4

EPOCH          = 2026-02-07T20:00:03.000384
MEAN_MOTION    = 16.04399759
ECCENTRICITY   = .0001323
INCLINATION    = 97.2813
RA_OF_ASC_NODE = 71.1842
ARG_OF_PERICENTER = 77.4259
MEAN_ANOMALY   = 110.7433

EPHEMERIS_TYPE = 0
CLASSIFICATION_TYPE = U
NORAD_CAT_ID   = 67670
ELEMENT_SET_NO = 999
REV_AT_EPOCH   = 209
BSTAR          = -.219E-2
MEAN_MOTION_DOT = -.1423735E-1
MEAN_MOTION_DDOT = .66328E-3

CCSDS_OMM_VERS = 2.0
CREATION_DATE  = 
ORIGINATOR     = 

OBJECT_NAME    = STARLINK-36297
OBJECT_ID      = 2026-022Z
CENTER_NAME    = EARTH
REF_FRAME      = TEME
TIME_SYSTEM    = UTC
MEAN_ELEMENT_THEORY = SGP/SGP4

EPOCH          = 2026-02-07T20:00:03.000384
MEAN_MOTION    = 16.04659100
ECCENTRICITY   = .0001328
INCLINATION    = 97.2812
RA_OF_ASC_NODE = 71.1854
ARG_OF_PERICENTER = 80.7696
MEAN_ANOMALY   = 110.0822

EPHEMERIS_TYPE = 0
CLASSIFICATION_TYPE = U
NORAD_CAT_ID   = 67671
ELEMENT_SET_NO = 999
REV_AT_EPOCH   = 209
BSTAR          = -.21412E-2
MEAN_MOTION_DOT = -.1413887E-1
MEAN_MOTION_DDOT = .65683E-3

CCSDS_OMM_VERS = 2.0
CREATION_DATE  = 
ORIGINATOR     = 

OBJECT_NAME    = STARLINK-36616
OBJECT_ID      = 2026-022AA
CENTER_NAME    = EARTH
REF_FRAME      = TEME
TIME_SYSTEM    = UTC
MEAN_ELEMENT_THEORY = SGP/SGP4

EPOCH          = 2026-02-07T20:00:03.000384
MEAN_MOTION    = 16.04531738
ECCENTRICITY   = .0001362
INCLINATION    = 97.2813
RA_OF_ASC_NODE = 71.1848
ARG_OF_PERICENTER = 71.3541
MEAN_ANOMALY   = 118.2251

EPHEMERIS_TYPE = 0
CLASSIFICATION_TYPE = U
NORAD_CAT_ID   = 67672
ELEMENT_SET_NO = 999
REV_AT_EPOCH   = 209
BSTAR          = -.21466E-2
MEAN_MOTION_DOT = -.1406795E-1
MEAN_MOTION_DDOT = .64974E-3

CCSDS_OMM_VERS = 2.0
CREATION_DATE  = 
ORIGINATOR     = 

OBJECT_NAME    = COSMOS 2600
OBJECT_ID      = 2026-023A
CENTER_NAME    = EARTH
REF_FRAME      = TEME
TIME_SYSTEM    = UTC
MEAN_ELEMENT_THEORY = SGP/SGP4

EPOCH          = 2026-02-07T19:24:26.852832
MEAN_MOTION    = 15.81264140
ECCENTRICITY   = .0002334
INCLINATION    = 96.6495
RA_OF_ASC_NODE = 115.3942
ARG_OF_PERICENTER = 74.2073
MEAN_ANOMALY   = 285.9454

EPHEMERIS_TYPE = 0
CLASSIFICATION_TYPE = U
NORAD_CAT_ID   = 67674
ELEMENT_SET_NO = 999
REV_AT_EPOCH   = 32
BSTAR          = .41347E-3
MEAN_MOTION_DOT = .8146E-3
MEAN_MOTION_DDOT = 0

CCSDS_OMM_VERS = 2.0
CREATION_DATE  = 
ORIGINATOR     = 

OBJECT_NAME    = 2026-023B
OBJECT_ID      = 2026-023B
CENTER_NAME    = EARTH
REF_FRAME      = TEME
TIME_SYSTEM    = UTC
MEAN_ELEMENT_THEORY = SGP/SGP4

EPOCH          = 2026-02-06T19:57:35.390304
MEAN_MOTION    = 15.22205300
ECCENTRICITY   = .00172194
INCLINATION    = 96.6397
RA_OF_ASC_NODE = 114.3547
ARG_OF_PERICENTER = 239.3232
MEAN_ANOMALY   = 120.6310

EPHEMERIS_TYPE = 0
CLASSIFICATION_TYPE = U
NORAD_CAT_ID   = 67675
ELEMENT_SET_NO = 999
REV_AT_EPOCH   = 16
BSTAR          = .13032448E-3
MEAN_MOTION_DOT = .2946E-4
MEAN_MOTION_DDOT = 0

CCSDS_OMM_VERS = 2.0
CREATION_DATE  = 
ORIGINATOR     = 

OBJECT_NAME    = 2026-023C
OBJECT_ID      = 2026-023C
CENTER_NAME    = EARTH
REF_FRAME      = TEME
TIME_SYSTEM    = UTC
MEAN_ELEMENT_THEORY = SGP/SGP4

EPOCH          = 2026-02-06T19:57:33.691680
MEAN_MOTION    = 15.22258115
ECCENTRICITY   = .00181766
INCLINATION    = 96.6444
RA_OF_ASC_NODE = 114.3671
ARG_OF_PERICENTER = 231.2308
MEAN_ANOMALY   = 128.7307

EPHEMERIS_TYPE = 0
CLASSIFICATION_TYPE = U
NORAD_CAT_ID   = 67676
ELEMENT_SET_NO = 999
REV_AT_EPOCH   = 15
BSTAR          = .27219097E-3
MEAN_MOTION_DOT = .6231E-4
MEAN_MOTION_DDOT = 0

CCSDS_OMM_VERS = 2.0
CREATION_DATE  = 
ORIGINATOR     = 

OBJECT_NAME    = 2026-023D
OBJECT_ID      = 2026-023D
CENTER_NAME    = EARTH
REF_FRAME      = TEME
TIME_SYSTEM    = UTC
MEAN_ELEMENT_THEORY = SGP/SGP4

EPOCH          = 2026-02-06T19:57:38.454048
MEAN_MOTION    = 15.22159024
ECCENTRICITY   = .00185322
INCLINATION    = 96.6468
RA_OF_ASC_NODE = 114.3470
ARG_OF_PERICENTER = 236.3918
MEAN_ANOMALY   = 123.5552

EPHEMERIS_TYPE = 0
CLASSIFICATION_TYPE = U
NORAD_CAT_ID   = 67677
ELEMENT_SET_NO = 999
REV_AT_EPOCH   = 15
BSTAR          = .27117196E-3
MEAN_MOTION_DOT = .619E-4
MEAN_MOTION_DDOT = 0

CCSDS_OMM_VERS = 2.0
CREATION_DATE  = 
ORIGINATOR     = 

OBJECT_NAME    = 2026-023E
OBJECT_ID      = 2026-023E
CENTER_NAME    = EARTH
REF_FRAME      = TEME
TIME_SYSTEM    = UTC
MEAN_ELEMENT_THEORY = SGP/SGP4

EPOCH          = 2026-02-06T19:57:34.936704
MEAN_MOTION    = 15.22227869
ECCENTRICITY   = .00181635
INCLINATION    = 96.6374
RA_OF_ASC_NODE = 114.3623
ARG_OF_PERICENTER = 237.2347
MEAN_ANOMALY   = 122.7142

EPHEMERIS_TYPE = 0
CLASSIFICATION_TYPE = U
NORAD_CAT_ID   = 67678
ELEMENT_SET_NO = 999
REV_AT_EPOCH   = 15
BSTAR          = .27128471E-3
MEAN_MOTION_DOT = .6205E-4
MEAN_MOTION_DDOT = 0

CCSDS_OMM_VERS = 2.0
CREATION_DATE  = 
ORIGINATOR     = 

OBJECT_NAME    = 2026-023F
OBJECT_ID      = 2026-023F
CENTER_NAME    = EARTH
REF_FRAME      = TEME
TIME_SYSTEM    = UTC
MEAN_ELEMENT_THEORY = SGP/SGP4

EPOCH          = 2026-02-06T19:57:21.808224
MEAN_MOTION    = 15.22365211
ECCENTRICITY   = .00208985
INCLINATION    = 96.6417
RA_OF_ASC_NODE = 116.8559
ARG_OF_PERICENTER = 224.4168
MEAN_ANOMALY   = 135.5395

EPHEMERIS_TYPE = 0
CLASSIFICATION_TYPE = U
NORAD_CAT_ID   = 67679
ELEMENT_SET_NO = 999
REV_AT_EPOCH   = 14
BSTAR          = .28069334E-3
MEAN_MOTION_DOT = .6457E-4
MEAN_MOTION_DDOT = 0

CCSDS_OMM_VERS = 2.0
CREATION_DATE  = 
ORIGINATOR     = 

OBJECT_NAME    = 2026-023G
OBJECT_ID      = 2026-023G
CENTER_NAME    = EARTH
REF_FRAME      = TEME
TIME_SYSTEM    = UTC
MEAN_ELEMENT_THEORY = SGP/SGP4

EPOCH          = 2026-02-06T19:57:21.860928
MEAN_MOTION    = 15.22375887
ECCENTRICITY   = .00218601
INCLINATION    = 96.6428
RA_OF_ASC_NODE = 116.8488
ARG_OF_PERICENTER = 225.7092
MEAN_ANOMALY   = 134.2354

EPHEMERIS_TYPE = 0
CLASSIFICATION_TYPE = U
NORAD_CAT_ID   = 67680
ELEMENT_SET_NO = 999
REV_AT_EPOCH   = 14
BSTAR          = .28117717E-3
MEAN_MOTION_DOT = .6474E-4
MEAN_MOTION_DDOT = 0

