STARLINK-36625          
1 67668U 26022W   26038.83336806 -.01452676  68569-3 -22817-2 0  9993
2 67668  97.2814  71.1829 0001353  73.2281 111.5998 16.04054078  2099
STARLINK-36639          
1 67669U 26022X   26038.83336806 -.01454061  68855-3 -22570-2 0  9998
2 67669  97.2816  71.1838 0001419  74.1056 112.5203 16.04252442  2090
STARLINK-36596          
1 67670U 26022Y   26038.83336806 -.01423735  66328-3 -21900-2 0  9993
2 67670  97.2813  71.1842 0001323  77.4259 110.7433 16.04399759  2097
STARLINK-36297          
1 67671U 26022Z   26038.83336806 -.01413887  65683-3 -21412-2 0  9992
2 67671  97.2812  71.1854 0001328  80.7696 110.0822 16.04659100  2091
STARLINK-36616          
1 67672U 26022AA  26038.83336806 -.01406795  64974-3 -21466-2 0  9994
2 67672  97.2813  71.1848 0001362  71.3541 118.2251 16.04531738  2091
COSMOS 2600             
1 67674U 26023A   26038.80864413  .00081460  00000+0  41347-3 0  9996
2 67674  96.6495 115.3942 0002334  74.2073 285.9454 15.81264140   325
2026-023B               
1 67675U 26023B   26037.83165961  .00002946  00000+0  13032-3 0  9993
2 67675  96.6397 114.3547 0017219 239.3232 120.6310 15.22205300   162
2026-023C               
1 67676U 26023C   26037.83163995  .00006231  00000+0  27219-3 0  9992
2 67676  96.6444 114.3671 0018176 231.2308 128.7307 15.22258115   158
2026-023D               
1 67677U 26023D   26037.83169507  .00006190  00000+0  27117-3 0  9999
2 67677  96.6468 114.3470 0018532 236.3918 123.5552 15.22159024   155
2026-023E               
1 67678U 26023E   26037.83165436  .00006205  00000+0  27128-3 0  9996
2 67678  96.6374 114.3623 0018163 237.2347 122.7142 15.22227869   157
2026-023F               
1 67679U 26023F   26037.83150241  .00006457  00000+0  28069-3 0  9999
2 67679  96.6417 116.8559 0020898 224.4168 135.5395 15.22365211   143
2026-023G               
1 67680U 26023G   26037.83150302  .00006474  00000+0  28118-3 0  9993
2 67680  96.6428 116.8488 0021860 225.7092 134.2354 15.22375887   149
